[{"OBJECT_NAME":"YAOGAN-30 11A","OBJECT_ID":"2021-065A","EPOCH":"2026-03-09T17:03:27.605952","MEAN_MOTION":15.0211069,"ECCENTRICITY":0.00046738,"INCLINATION":34.9929,"RA_OF_ASC_NODE":159.1721,"ARG_OF_PERICENTER":355.4238,"MEAN_ANOMALY":4.6427,"EPHEMERIS_TYPE":0,"CLASSIFICATION_TYPE":"U","NORAD_CAT_ID":49026,"ELEMENT_SET_NO":999,"REV_AT_EPOCH":25367,"BSTAR":0.00035664483,"MEAN_MOTION_DOT":4.757e-5,"MEAN_MOTION_DDOT":0},{"OBJECT_NAME":"STARLINK-34757","OBJECT_ID":"2025-152J","EPOCH":"2026-03-09T14:29:44.288448","MEAN_MOTION":15.05654812,"ECCENTRICITY":0.0002943,"INCLINATION":97.6022,"RA_OF_ASC_NODE":285.4077,"ARG_OF_PERICENTER":71.7281,"MEAN_ANOMALY":288.4266,"EPHEMERIS_TYPE":0,"CLASSIFICATION_TYPE":"U","NORAD_CAT_ID":64850,"ELEMENT_SET_NO":999,"REV_AT_EPOCH":3540,"BSTAR":0.00050251,"MEAN_MOTION_DOT":7.199e-5,"MEAN_MOTION_DDOT":0}]
