YAOGAN-30 11A           
1 49026U 21065A   26068.71073618  .00004757  00000+0  35664-3 0  9999
2 49026  34.9929 159.1721 0004674 355.4238   4.6427 15.02110690253677
STARLINK-34757          
1 64850U 25152J   26068.60398482  .00007199  00000+0  50251-3 0  9991
2 64850  97.6022 285.4077 0002943  71.7281 288.4266 15.05654812 35403
